{"spkid": "20357028", "covariance": {"elements": [{"label": "e", "units": null, "title": "eccentricity", "value": ".6148164854190681", "name": "e", "sigma": 5.196433974471e-08}, {"name": "q", "sigma": 7.2016583744561e-08, "units": "au", "value": ".5326007294158395", "title": "perihelion distance", "label": "q"}, {"sigma": 1.80700738490238e-05, "name": "tp", "title": "time of perihelion passage", "value": "2459433.233438648166", "units": "TDB", "label": "tp"}, {"label": "node", "name": "om", "sigma": 3.37346308754506e-05, "units": "deg", "title": "longitude of the ascending node", "value": "10.48611232883274"}, {"units": "deg", "value": "285.9156049988185", "title": "argument of perihelion", "name": "w", "sigma": 3.25880601486266e-05, "label": "peri"}, {"label": "i", "name": "i", "sigma": 6.55630846941438e-06, "units": "deg", "value": "9.22809335693678", "title": "inclination"}], "data": [["2.700292605103651E-15", "-3.741906993190216E-15", "1.429700490025678E-13", "3.147514498289429E-13", "-1.762408553937459E-13", "-1.986448040212735E-14"], ["-3.741906993190216E-15", "5.186388334237374E-15", "-1.840200715020128E-13", "-4.278722878411024E-13", "2.405068869537332E-13", "2.677886826518959E-14"], ["1.429700490025678E-13", "-1.840200715020128E-13", "3.265275689091732E-10", "1.112537831283991E-10", "1.01018784956152E-11", "-6.367044282953903E-12"], ["3.147514498289429E-13", "-4.278722878411024E-13", "1.112537831283991E-10", "1.138025320302903E-9", "-1.06564377597883E-9", "-4.038776476786512E-11"], ["-1.762408553937459E-13", "2.405068869537332E-13", "1.01018784956152E-11", "-1.06564377597883E-9", "1.061981664250505E-9", "3.558750055016658E-11"], ["-1.986448040212735E-14", "2.677886826518959E-14", "-6.367044282953903E-12", "-4.038776476786512E-11", "3.558750055016658E-11", "4.298518074611468E-11"]], "labels": ["e", "q", "tp", "node", "peri", "i"], "epoch": "2459459.5"}, "elements": [{"sigma": "5.1754E-8", "name": "e", "title": "eccentricity", "value": ".6149808263738744", "units": null, "label": "e"}, {"name": "a", "sigma": "6.4307E-9", "units": "au", "value": "1.382428345134802", "title": "semi-major axis", "label": "a"}, {"units": "au", "value": ".5322614190411337", "title": "perihelion distance", "name": "q", "sigma": "7.2098E-8", "label": "q"}, {"units": "deg", "value": "9.22336735847891", "title": "inclination; angle with respect to x-y ecliptic plane", "sigma": "6.562E-6", "name": "i", "label": "i"}, {"sigma": "3.3749E-5", "name": "om", "title": "longitude of the ascending node", "value": "10.40016875861044", "units": "deg", "label": "node"}, {"label": "peri", "sigma": "3.2644E-5", "name": "w", "title": "argument of perihelion", "value": "285.9897154189043", "units": "deg"}, {"label": "M", "title": "mean anomaly", "value": "351.3704899115944", "units": "deg", "name": "ma", "sigma": "1.4823E-5"}, {"units": "TDB", "value": "2461214.731347122035", "title": "time of perihelion passage", "name": "tp", "sigma": "2.4537E-5", "label": "tp"}, {"label": "period", "units": "d", "value": "593.6936061777207", "title": "sidereal orbital period", "sigma": "4.1426E-6", "name": "per"}, {"name": "n", "sigma": "4.231E-9", "value": ".6063733822530589", "title": "mean motion", "units": "deg/d", "label": "n"}, {"units": "au", "value": "2.232595271228469", "title": "aphelion distance", "name": "ad", "sigma": "1.0385E-8", "label": "Q"}], "epoch": "2461200.5"}